CSS (TIANHE)            
1 48274U 21035A   24047.79965593  .00048125  00000+0  49428-3 0  9995
2 48274  41.4685 104.7986 0006637  31.0005 329.1226 15.64054145160097
